OBJECT_NAME,OBJECT_ID,EPOCH,MEAN_MOTION,ECCENTRICITY,INCLINATION,RA_OF_ASC_NODE,ARG_OF_PERICENTER,MEAN_ANOMALY,EPHEMERIS_TYPE,CLASSIFICATION_TYPE,NORAD_CAT_ID,ELEMENT_SET_NO,REV_AT_EPOCH,BSTAR,MEAN_MOTION_DOT,MEAN_MOTION_DDOT
STARLINK-32561,2024-213U,2026-07-13T06:41:19.934016,15.30204034,.00008782,53.1591,304.7356,8.5843,351.5173,0,U,62026,999,9238,.34746885E-3,.9947E-4,0
STARLINK-32512,2024-213V,2026-07-13T07:52:36.372864,15.30204682,.00008564,53.1589,304.3342,64.2248,295.8841,0,U,62027,999,9239,.78951304E-3,.231E-3,0
STARLINK-32637,2024-216A,2026-07-13T06:06:03.338784,15.27584490,.00009245,43.0000,266.8120,268.7749,91.2997,0,U,62032,999,9308,.32568337E-3,.8712E-4,0
STARLINK-32582,2024-216B,2026-07-12T13:42:37.480032,15.27562665,.0001954,43.0006,278.0712,262.7143,97.3487,0,U,62033,999,9289,.30795E-3,.8217E-4,0
STARLINK-32615,2024-216C,2026-07-13T05:27:24.761952,15.27590568,.00011339,42.9982,267.4701,261.3560,98.7163,0,U,62034,999,9191,.4146409E-3,.11169E-3,0
STARLINK-32592,2024-216D,2026-07-13T06:01:09.916608,15.27591074,.00010808,42.9980,274.5662,237.7822,122.2925,0,U,62035,999,9300,.35430322E-3,.9504E-4,0
STARLINK-32225,2024-216E,2026-07-13T05:32:57.853824,15.27588184,.0001209,42.9977,267.4991,264.9447,95.1267,0,U,62036,999,9314,.35121956E-3,.9418E-4,0
STARLINK-32595,2024-216F,2026-07-13T05:44:31.209504,15.27591302,.00018225,43.0012,274.4849,277.1110,82.9534,0,U,62037,999,9300,.43512034E-3,.11735E-3,0
STARLINK-32477,2024-216G,2026-07-13T06:00:02.999808,15.93921233,.00242966,42.9778,223.2039,84.7095,146.6871,0,U,62038,999,596,.73927176E-3,.287703E-2,.39909938E-4
STARLINK-32480,2024-216H,2026-07-13T05:36:39.555360,15.27592727,.00009282,42.9980,267.5166,200.6946,159.3868,0,U,62039,999,9191,.41584646E-3,.11203E-3,0
STARLINK-32510,2024-216J,2026-07-13T06:21:31.514976,15.27589303,.00015245,43.0014,274.6746,273.7839,86.2838,0,U,62040,999,9299,.38780709E-3,.10428E-3,0
STARLINK-32456,2024-216K,2026-07-13T05:42:12.428640,15.27592479,.00015465,42.9965,267.5438,173.1930,186.8943,0,U,62041,999,9307,.40800639E-3,.10986E-3,0
STARLINK-32509,2024-216L,2026-07-13T05:18:09.482976,15.27588437,.00029293,43.0053,267.4293,298.0850,61.9705,0,U,62042,999,9307,.34626351E-3,.9281E-4,0
STARLINK-32491,2024-216M,2026-07-13T06:15:57.716352,15.27598437,.00067686,42.9871,274.6281,140.8278,219.3064,0,U,62043,999,9299,.54351404E-3,.1474E-3,0
STARLINK-32577,2024-216N,2026-07-13T07:07:34.744224,15.27614416,.00018143,42.9995,274.0557,267.0663,92.9982,0,U,62044,999,9301,.5681343E-3,.15421E-3,0
STARLINK-32618,2024-216P,2026-07-13T05:31:06.184416,15.27587258,.00009387,42.9945,267.4756,246.8781,113.1972,0,U,62045,999,9307,.31161364E-3,.8325E-4,0
STARLINK-32598,2024-216Q,2026-07-13T04:22:38.661024,15.27590275,.00017721,42.9996,267.1267,175.0978,184.9892,0,U,62046,999,9307,.43415898E-3,.11708E-3,0
STARLINK-32630,2024-216R,2026-07-13T05:50:04.005888,15.27585535,.00010039,42.9981,274.5067,243.1532,116.9217,0,U,62047,999,9299,.34373563E-3,.921E-4,0
STARLINK-32599,2024-216S,2026-07-13T05:55:37.327584,15.27585531,.00010466,42.9989,274.5354,261.5571,98.5162,0,U,62048,999,9299,.27342535E-3,.7271E-4,0
STARLINK-32473,2024-216T,2026-07-13T06:56:00.684384,15.27589907,.00016017,42.9981,267.0681,276.0747,83.9923,0,U,62049,999,9192,.2203632E-3,.5808E-4,0
STARLINK-32492,2024-216U,2026-07-13T06:52:45.739200,15.27589026,.00012401,42.9986,273.9743,221.1681,138.9077,0,U,62050,999,9300,.33845243E-3,.9065E-4,0
STARLINK-32496,2024-216V,2026-07-13T06:10:25.110048,15.27599297,.00015863,42.9993,274.6119,258.6140,101.4533,0,U,62051,999,9299,.35568864E-3,.9544E-4,0
STARLINK-32495,2024-216W,2026-07-13T06:26:51.646848,15.27591746,.00035123,43.0000,273.8364,284.4505,75.5957,0,U,62052,999,9300,.40440912E-3,.10888E-3,0
STARLINK-32494,2024-216X,2026-07-12T07:31:31.437120,15.27598435,.0001346,42.9973,279.5701,222.7423,137.3324,0,U,62053,999,9285,.54035E-3,.14645E-3,0
STARLINK-32408,2024-216Y,2026-07-13T05:16:18.472800,15.27587305,.00024752,42.9973,267.4108,290.8826,69.1760,0,U,62054,999,9308,.42185025E-3,.11367E-3,0
STARLINK-32571,2024-216Z,2026-07-13T05:51:14.880672,15.27593645,.00010981,43.0002,266.7278,244.4526,115.6213,0,U,62055,999,9318,.47151008E-3,.12741E-3,0
STARLINK-11465 [DTC],2024-217A,2026-07-12T23:22:07.061376,15.69819446,.00009924,53.1566,173.4466,123.2979,236.8135,0,U,62057,999,9485,.10120587E-2,.12444E-2,0
STARLINK-11426 [DTC],2024-217B,2026-07-12T23:15:04.245696,15.69829113,.00017287,53.1557,173.4131,125.7933,234.3246,0,U,62058,999,9479,.17743659E-2,.221296E-2,0
STARLINK-11454 [DTC],2024-217C,2026-07-13T06:11:15.317088,15.69808649,.00015009,53.1583,172.3814,102.8739,257.2447,0,U,62059,999,9489,.84760172E-3,.103816E-2,0
STARLINK-11473 [DTC],2024-217D,2026-07-12T13:36:52.560000,15.69759014,.0001928,53.1584,175.8996,53.1419,306.9775,0,U,62060,999,9478,.74897E-3,.91342E-3,0
STARLINK-11429 [DTC],2024-217E,2026-07-12T10:12:18.373824,15.69732270,.00011302,53.1566,176.4307,94.3222,265.7925,0,U,62061,999,9476,.85188891E-3,.104015E-2,0
STARLINK-11470 [DTC],2024-217F,2026-07-12T22:18:42.421824,15.69801165,.00012888,53.1555,173.8849,111.6149,248.5006,0,U,62062,999,9478,.17381274E-2,.216382E-2,0
STARLINK-11427 [DTC],2024-217G,2026-07-13T06:18:19.122048,15.69743660,.00007909,53.1573,172.4144,1.3298,358.7722,0,U,62063,999,9489,.81876717E-3,.99946E-3,0
STARLINK-11456 [DTC],2024-217H,2026-07-13T02:32:34.131840,15.69813458,.00008807,53.1581,172.8503,54.1735,305.9365,0,U,62064,999,9487,.12787685E-2,.157994E-2,0
STARLINK-11474 [DTC],2024-217J,2026-07-12T10:54:32.571360,15.69858294,.00009854,53.1554,175.8892,136.9783,223.1312,0,U,62065,999,9477,.14640711E-2,.181838E-2,0
STARLINK-11463 [DTC],2024-217K,2026-07-13T05:50:03.655968,15.69755033,.00022717,53.1600,172.2901,297.1616,62.9170,0,U,62066,999,9489,.87425469E-3,.106906E-2,0
STARLINK-11472 [DTC],2024-217L,2026-07-13T06:39:30.581856,15.69726118,.00009007,53.1560,172.5115,64.7826,295.3285,0,U,62067,999,9482,.11630974E-2,.142865E-2,0
STARLINK-11467 [DTC],2024-217M,2026-07-12T11:22:47.811072,15.69739070,.00011955,53.1559,176.0163,92.3542,267.7613,0,U,62068,999,9477,.74917803E-3,.91288E-3,0
STARLINK-11460 [DTC],2024-217N,2026-07-12T22:54:01.434528,15.69781640,.00014682,53.1587,174.0468,110.1193,249.9983,0,U,62069,999,9478,.10037002E-2,.123196E-2,0
STARLINK-32604,2024-217P,2026-07-12T15:29:46.939488,15.34407161,.00010038,53.1612,332.0015,129.3273,230.7819,0,U,62070,999,9257,.53487694E-3,.17742E-3,0
STARLINK-32553,2024-217Q,2026-07-12T18:46:27.813504,15.34410122,.00009927,53.1610,331.4363,98.4348,261.6768,0,U,62071,999,9264,.58973197E-3,.19607E-3,0
STARLINK-32603,2024-217R,2026-07-12T19:04:38.486496,15.34404277,.0000694,53.1595,331.5128,65.8149,294.2926,0,U,62072,999,9264,.50136865E-3,.16603E-3,0
STARLINK-32444,2024-217S,2026-07-12T18:25:16.027104,15.34401956,.00012771,53.1608,331.3665,61.4751,298.6380,0,U,62073,999,9259,.43115859E-3,.1422E-3,0
STARLINK-32619,2024-217T,2026-07-12T18:28:17.168160,15.34407778,.00009265,53.1597,331.3600,81.4589,278.6519,0,U,62074,999,9259,.44592583E-3,.14723E-3,0
STARLINK-32580,2024-217U,2026-07-12T16:02:22.464384,15.30202376,.00010395,53.1601,320.7769,96.3143,263.7976,0,U,62075,999,9273,.34565654E-3,.9893E-4,0
STARLINK-32617,2024-217V,2026-07-12T20:13:16.318272,15.34404717,.00008181,53.1600,319.0228,90.1851,269.9246,0,U,62076,999,9277,.59152765E-3,.19665E-3,0
STARLINK-11384 [DTC],2024-220A,2026-07-12T20:25:45.282720,15.70867136,.00012776,42.9983,9.0169,289.0563,71.0166,0,U,62088,999,9473,.10840629E-2,.141199E-2,0
STARLINK-11379 [DTC],2024-220B,2026-07-13T06:00:02.999808,15.70902980,.00018269,43.0006,6.5372,265.3455,222.8607,0,U,62089,999,588,-.146201E-2,-.184446E-2,0
STARLINK-11387 [DTC],2024-220C,2026-07-12T21:42:01.262592,15.70824829,.00016999,43.0014,8.5492,252.6032,107.4649,0,U,62090,999,9474,.81403339E-3,.105269E-2,0
STARLINK-11389 [DTC],2024-220D,2026-07-12T20:02:48.866784,15.70891359,.00016856,42.9994,8.8873,274.6977,85.3698,0,U,62091,999,9463,.15484946E-2,.203627E-2,0
STARLINK-11388 [DTC],2024-220E,2026-07-12T21:26:43.546848,15.70901439,.00017089,42.9992,8.4653,286.9029,73.1652,0,U,62092,999,9464,.11323481E-2,.147842E-2,0
STARLINK-11345 [DTC],2024-220F,2026-07-12T13:41:17.237760,15.70847323,.0004182,42.9988,10.3362,295.4470,64.5965,0,U,62093,999,9459,.12721E-2,.166183E-2,0
STARLINK-11381 [DTC],2024-220G,2026-07-12T22:42:59.509440,15.70904347,.00021782,43.0003,7.9933,272.5357,87.5261,0,U,62094,999,9465,.11272633E-2,.147186E-2,0
STARLINK-11369 [DTC],2024-220H,2026-07-12T22:35:20.831712,15.70903941,.00025393,43.0003,7.9504,279.5299,80.5282,0,U,62095,999,9475,.11265858E-2,.147098E-2,0
STARLINK-11303 [DTC],2024-220J,2026-07-12T13:18:20.919456,15.70844445,.00035137,42.9997,10.2086,287.4886,72.5597,0,U,62096,999,9469,.11620766E-2,.151465E-2,0
STARLINK-11367 [DTC],2024-220K,2026-07-12T20:48:29.924064,15.70882495,.00016822,42.9999,8.2492,269.7117,90.3558,0,U,62097,999,9474,.14207792E-2,.186334E-2,0
STARLINK-11386 [DTC],2024-220L,2026-07-12T11:31:29.928000,15.70943392,.00023086,42.9990,10.5048,254.7374,105.3239,0,U,62098,999,9458,.14109434E-2,.185503E-2,0
STARLINK-11380 [DTC],2024-220M,2026-07-12T12:55:24.551904,15.71030321,.00021731,42.9986,10.0771,219.2073,140.8638,0,U,62099,999,9459,.16277026E-2,.215639E-2,0
STARLINK-33566,2024-220N,2026-07-13T01:16:56.572320,15.27607277,.00005739,42.9973,202.8456,211.5058,148.5759,0,U,62100,999,9253,.37933626E-3,.102E-3,0
STARLINK-33545,2024-220P,2026-07-13T00:46:37.324416,15.27613099,.00010819,42.9979,217.4250,290.3239,69.7496,0,U,62101,999,9219,.70348506E-3,.19166E-3,0
STARLINK-33562,2024-220Q,2026-07-13T02:37:27.650784,15.27582885,.00011823,43.0004,217.1402,259.4344,100.6375,0,U,62102,999,9220,.29480301E-3,.786E-4,0
STARLINK-33554,2024-220R,2026-07-13T02:15:14.289696,15.27596782,.00008161,42.9947,217.0231,272.2654,87.8104,0,U,62103,999,9213,.6559903E-3,.17842E-3,0
